OBJECT_NAME,OBJECT_ID,EPOCH,MEAN_MOTION,ECCENTRICITY,INCLINATION,RA_OF_ASC_NODE,ARG_OF_PERICENTER,MEAN_ANOMALY,EPHEMERIS_TYPE,CLASSIFICATION_TYPE,NORAD_CAT_ID,ELEMENT_SET_NO,REV_AT_EPOCH,BSTAR,MEAN_MOTION_DOT,MEAN_MOTION_DDOT
STARLINK-37150,2026-057X,2026-06-15T07:00:45.202176,15.49218379,.00009186,97.2863,293.0261,72.9011,287.2341,0,U,68315,999,1361,.77810811E-3,.42501E-3,0
STARLINK-37154,2026-057Y,2026-06-15T06:00:02.000160,15.46175143,.00010773,97.2856,292.9305,78.1573,280.0932,0,U,68316,999,599,-.543434E-1,-.2375065E-1,0
STARLINK-37139,2026-057Z,2026-06-15T06:00:02.000160,15.33394219,.00017227,97.2864,293.0167,94.4936,108.4065,0,U,68317,999,584,.26054399E-2,.84854E-3,0
STARLINK-37113,2026-057AA,2026-06-15T06:00:02.000160,15.38432711,.00016402,97.2861,292.9564,86.3804,333.9555,0,U,68318,999,599,-.86684337E-1,-.290599E-1,0
STARLINK-36987,2026-059A,2026-06-15T11:48:28.392192,15.30189368,.0001146,53.1586,253.6963,75.3970,284.7157,0,U,68321,999,1315,.22667E-3,.6358E-4,0
STARLINK-37088,2026-059B,2026-06-15T11:26:26.238048,15.34378669,.0001267,53.1589,249.3316,74.8522,285.2621,0,U,68322,999,1321,.36964E-3,.12124E-3,0
STARLINK-36983,2026-059C,2026-06-15T12:45:04.802112,15.34398279,.0001248,53.1594,248.9611,72.4516,287.6623,0,U,68323,999,1321,.44472E-3,.14678E-3,0
STARLINK-37164,2026-059D,2026-06-15T12:21:53.278272,15.30226501,.0001253,53.1591,253.8460,86.0378,274.0766,0,U,68324,999,1428,.75688E-3,.22143E-3,0
STARLINK-36309,2026-059E,2026-06-15T12:02:47.114016,15.34384213,.0001275,53.1593,249.4845,102.3975,257.7170,0,U,68325,999,1321,.45492E-3,.15017E-3,0
STARLINK-37206,2026-059F,2026-06-15T11:53:01.702176,15.30205817,.0001131,53.1603,253.7155,85.0137,275.0993,0,U,68326,999,1315,.78801E-3,.23056E-3,0
STARLINK-37199,2026-059G,2026-06-15T12:59:43.928160,15.30196727,.0001047,53.1578,253.3128,92.1827,267.9294,0,U,68327,999,1316,.43053E-3,.12412E-3,0
STARLINK-36245,2026-059H,2026-06-15T12:17:20.794272,15.30203379,.0001296,53.1594,253.8228,80.6512,279.4635,0,U,68328,999,1315,.41903E-3,.12073E-3,0
STARLINK-37204,2026-059J,2026-06-15T12:26:54.561984,15.34416890,.0001262,53.1587,248.8838,97.4777,262.6369,0,U,68329,999,1322,.41998E-3,.13847E-3,0
STARLINK-37001,2026-059K,2026-06-15T12:08:14.448192,15.30233070,.0001354,53.1609,253.8070,76.1480,283.9671,0,U,68330,999,1315,.76078E-3,.22263E-3,0
STARLINK-36932,2026-059L,2026-06-15T11:32:29.779008,15.34383187,.000113,53.1605,249.3536,75.7654,284.3474,0,U,68331,999,1321,.72674E-3,.24244E-3,0
STARLINK-37205,2026-059M,2026-06-15T12:50:45.822912,15.30206149,.0001083,53.1581,253.9759,96.9972,263.1152,0,U,68332,999,1315,.31244E-3,.8907E-4,0
STARLINK-37180,2026-059N,2026-06-15T11:38:33.152352,15.34399487,.0001825,53.1611,249.3966,90.0910,270.0302,0,U,68333,999,1321,.47152E-3,.15588E-3,0
STARLINK-37191,2026-059P,2026-06-15T12:40:08.237568,15.30203147,.0001053,53.1579,253.9313,97.1065,263.0056,0,U,68334,999,1315,.47537E-3,.13748E-3,0
STARLINK-37217,2026-059Q,2026-06-15T12:23:09.991104,15.34385589,.000105,53.1586,247.4346,80.7509,279.3612,0,U,68335,999,1324,.64541E-3,.21482E-3,0
STARLINK-37143,2026-059R,2026-06-15T12:31:01.410240,15.30196936,.0001031,53.1583,253.8840,63.1469,296.9637,0,U,68336,999,1315,.64622E-3,.18827E-3,0
STARLINK-36237,2026-059S,2026-06-15T12:32:57.448896,15.34382102,.0001062,53.1589,248.8980,81.8796,278.2327,0,U,68337,999,1322,.52736E-3,.17473E-3,0
STARLINK-36254,2026-059T,2026-06-15T12:11:44.827872,15.34398365,.0001104,53.1588,248.8059,94.4165,265.6963,0,U,68338,999,1322,.70203E-3,.23416E-3,0
STARLINK-37200,2026-059U,2026-06-15T11:34:47.509248,15.30184561,.0001016,53.1569,253.6346,96.3544,263.7572,0,U,68339,999,1315,.34288E-3,.9805E-4,0
STARLINK-37185,2026-059V,2026-06-15T11:17:20.431968,15.34384362,.000134,53.1593,249.2873,102.1315,257.9838,0,U,68340,999,1321,.30816E-3,.10044E-3,0
STARLINK-37181,2026-059W,2026-06-15T11:35:31.612992,15.34377139,.0001268,53.1601,249.3628,76.5040,283.6104,0,U,68341,999,1321,.44942E-3,.14827E-3,0
STARLINK-37192,2026-059X,2026-06-15T12:00:02.000160,15.34391295,.0001241,53.1575,249.1005,84.3033,114.5213,0,U,68342,999,591,-.18201E-3,-.6519E-4,0
STARLINK-37158,2026-059Y,2026-06-15T12:05:49.229664,15.34381412,.0001101,53.1593,249.4994,68.3167,291.7953,0,U,68343,999,1321,.50745E-3,.16797E-3,0
STARLINK-36380,2026-059Z,2026-06-15T12:19:47.707104,15.29360860,.0001214,53.1592,254.5472,87.7010,272.4130,0,U,68344,999,1314,.67321E-3,.19123E-3,0
STARLINK-37214,2026-059AA,2026-06-15T12:08:43.020672,15.34387855,.0001184,53.1587,248.7950,83.5971,276.5166,0,U,68345,999,1322,.63454E-3,.21115E-3,0
STARLINK-37169,2026-059AB,2026-06-15T11:53:42.139104,15.34390490,.0001498,53.1594,249.4467,72.0145,288.1021,0,U,68346,999,1321,.7407E-3,.24725E-3,0
