STARLINK-37150          
1 68315U 26057X   26166.29218984  .00042501  00000+0  77811-3 0  9995
2 68315  97.2863 293.0261 0000918  72.9011 287.2341 15.49218379 13618
STARLINK-37154          
1 68316U 26057Y   26166.25002315 -.02375065  00000+0 -54343-1 0  9992
2 68316  97.2856 292.9305 0001077  78.1573 280.0932 15.46175143  5993
STARLINK-37139          
1 68317U 26057Z   26166.25002315  .00084854  00000+0  26054-2 0  9991
2 68317  97.2864 293.0167 0001722  94.4936 108.4065 15.33394219  5849
STARLINK-37113          
1 68318U 26057AA  26166.25002315 -.02905990  00000+0 -86684-1 0  9993
2 68318  97.2861 292.9564 0001640  86.3804 333.9555 15.38432711  5999
STARLINK-36987          
1 68321U 26059A   26166.49199528  .00006358  00000+0  22667-3 0  9997
2 68321  53.1586 253.6963 0001146  75.3970 284.7157 15.30189368 13155
STARLINK-37088          
1 68322U 26059B   26166.47669257  .00012124  00000+0  36964-3 0  9990
2 68322  53.1589 249.3316 0001267  74.8522 285.2621 15.34378669 13211
STARLINK-36983          
1 68323U 26059C   26166.53130558  .00014678  00000+0  44472-3 0  9994
2 68323  53.1594 248.9611 0001248  72.4516 287.6623 15.34398279 13214
STARLINK-37164          
1 68324U 26059D   26166.51519998  .00022143  00000+0  75688-3 0  9991
2 68324  53.1591 253.8460 0001253  86.0378 274.0766 15.30226501 14282
STARLINK-36309          
1 68325U 26059E   26166.50193419  .00015017  00000+0  45492-3 0  9999
2 68325  53.1593 249.4845 0001275 102.3975 257.7170 15.34384213 13210
STARLINK-37206          
1 68326U 26059F   26166.49515859  .00023056  00000+0  78801-3 0  9996
2 68326  53.1603 253.7155 0001131  85.0137 275.0993 15.30205817 13150
STARLINK-37199          
1 68327U 26059G   26166.54148065  .00012412  00000+0  43053-3 0  9999
2 68327  53.1578 253.3128 0001047  92.1827 267.9294 15.30196727 13163
STARLINK-36245          
1 68328U 26059H   26166.51204623  .00012073  00000+0  41903-3 0  9995
2 68328  53.1594 253.8228 0001296  80.6512 279.4635 15.30203379 13155
STARLINK-37204          
1 68329U 26059J   26166.51868706  .00013847  00000+0  41998-3 0  9998
2 68329  53.1587 248.8838 0001262  97.4777 262.6369 15.34416890 13225
STARLINK-37001          
1 68330U 26059K   26166.50572278  .00022263  00000+0  76078-3 0  9994
2 68330  53.1609 253.8070 0001354  76.1480 283.9671 15.30233070 13150
STARLINK-36932          
1 68331U 26059L   26166.48090022  .00024244  00000+0  72674-3 0  9993
2 68331  53.1605 249.3536 0001130  75.7654 284.3474 15.34383187 13216
STARLINK-37205          
1 68332U 26059M   26166.53525258  .00008907  00000+0  31244-3 0  9990
2 68332  53.1581 253.9759 0001083  96.9972 263.1152 15.30206149 13152
STARLINK-37180          
1 68333U 26059N   26166.48510593  .00015588  00000+0  47152-3 0  9999
2 68333  53.1611 249.3966 0001825  90.0910 270.0302 15.34399487 13210
STARLINK-37191          
1 68334U 26059P   26166.52787312  .00013748  00000+0  47537-3 0  9993
2 68334  53.1579 253.9313 0001053  97.1065 263.0056 15.30203147 13157
STARLINK-37217          
1 68335U 26059Q   26166.51608786  .00021482  00000+0  64541-3 0  9998
2 68335  53.1586 247.4346 0001050  80.7509 279.3612 15.34385589 13241
STARLINK-37143          
1 68336U 26059R   26166.52154410  .00018827  00000+0  64622-3 0  9999
2 68336  53.1583 253.8840 0001031  63.1469 296.9637 15.30196936 13152
STARLINK-36237          
1 68337U 26059S   26166.52288714  .00017473  00000+0  52736-3 0  9994
2 68337  53.1589 248.8980 0001062  81.8796 278.2327 15.34382102 13225
STARLINK-36254          
1 68338U 26059T   26166.50815773  .00023416  00000+0  70203-3 0  9997
2 68338  53.1588 248.8059 0001104  94.4165 265.6963 15.34398365 13223
STARLINK-37200          
1 68339U 26059U   26166.48249432  .00009805  00000+0  34288-3 0  9997
2 68339  53.1569 253.6346 0001016  96.3544 263.7572 15.30184561 13154
STARLINK-37185          
1 68340U 26059V   26166.47037537  .00010044  00000+0  30816-3 0  9999
2 68340  53.1593 249.2873 0001340 102.1315 257.9838 15.34384362 13213
STARLINK-37181          
1 68341U 26059W   26166.48300478  .00014827  00000+0  44942-3 0  9996
2 68341  53.1601 249.3628 0001268  76.5040 283.6104 15.34377139 13217
STARLINK-37192          
1 68342U 26059X   26166.50002315 -.00006519  00000+0 -18201-3 0  9999
2 68342  53.1575 249.1005 0001241  84.3033 114.5213 15.34391295  5915
STARLINK-37158          
1 68343U 26059Y   26166.50404201  .00016797  00000+0  50745-3 0  9996
2 68343  53.1593 249.4994 0001101  68.3167 291.7953 15.34381412 13212
STARLINK-36380          
1 68344U 26059Z   26166.51374661  .00019123  00000+0  67321-3 0  9998
2 68344  53.1592 254.5472 0001214  87.7010 272.4130 15.29360860 13140
STARLINK-37214          
1 68345U 26059AA  26166.50605348  .00021115  00000+0  63454-3 0  9994
2 68345  53.1587 248.7950 0001184  83.5971 276.5166 15.34387855 13229
STARLINK-37169          
1 68346U 26059AB  26166.49562661  .00024725  00000+0  74070-3 0  9999
2 68346  53.1594 249.4467 0001498  72.0145 288.1021 15.34390490 13210
